CCSDS_OMM_VERS = 2.0
CREATION_DATE  = 
ORIGINATOR     = 

OBJECT_NAME    = CZ-2C R/B
OBJECT_ID      = 2022-132E
CENTER_NAME    = EARTH
REF_FRAME      = TEME
TIME_SYSTEM    = UTC
MEAN_ELEMENT_THEORY = SGP/SGP4

EPOCH          = 2025-12-22T06:12:22.582080
MEAN_MOTION    = 15.55364908
ECCENTRICITY   = .00216184
INCLINATION    = 97.2939
RA_OF_ASC_NODE = 352.6424
ARG_OF_PERICENTER = 24.9373
MEAN_ANOMALY   = 335.2921

EPHEMERIS_TYPE = 0
CLASSIFICATION_TYPE = U
NORAD_CAT_ID   = 54039
ELEMENT_SET_NO = 999
REV_AT_EPOCH   = 17831
BSTAR          = .49472942E-3
MEAN_MOTION_DOT = .33949E-3
MEAN_MOTION_DDOT = 0

CCSDS_OMM_VERS = 2.0
CREATION_DATE  = 
ORIGINATOR     = 

OBJECT_NAME    = GSLV R/B
OBJECT_ID      = 2022-138AN
CENTER_NAME    = EARTH
REF_FRAME      = TEME
TIME_SYSTEM    = UTC
MEAN_ELEMENT_THEORY = SGP/SGP4

EPOCH          = 2025-12-22T02:03:19.853280
MEAN_MOTION    = 14.96174626
ECCENTRICITY   = .00241083
INCLINATION    = 87.3823
RA_OF_ASC_NODE = 192.3437
ARG_OF_PERICENTER = 75.0391
MEAN_ANOMALY   = 285.3507

EPHEMERIS_TYPE = 0
CLASSIFICATION_TYPE = U
NORAD_CAT_ID   = 54149
ELEMENT_SET_NO = 999
REV_AT_EPOCH   = 17232
BSTAR          = .20101021E-3
MEAN_MOTION_DOT = .2305E-4
MEAN_MOTION_DDOT = 0

CCSDS_OMM_VERS = 2.0
CREATION_DATE  = 
ORIGINATOR     = 

OBJECT_NAME    = XRISM
OBJECT_ID      = 2023-137A
CENTER_NAME    = EARTH
REF_FRAME      = TEME
TIME_SYSTEM    = UTC
MEAN_ELEMENT_THEORY = SGP/SGP4

EPOCH          = 2025-12-22T05:14:33.778464
MEAN_MOTION    = 15.10423039
ECCENTRICITY   = .00076971
INCLINATION    = 31.0029
RA_OF_ASC_NODE = 64.3419
ARG_OF_PERICENTER = 340.1947
MEAN_ANOMALY   = 19.8392

EPHEMERIS_TYPE = 0
CLASSIFICATION_TYPE = U
NORAD_CAT_ID   = 57800
ELEMENT_SET_NO = 999
REV_AT_EPOCH   = 12606
BSTAR          = .30764834E-3
MEAN_MOTION_DOT = .528E-4
MEAN_MOTION_DDOT = 0

CCSDS_OMM_VERS = 2.0
CREATION_DATE  = 
ORIGINATOR     = 

OBJECT_NAME    = ACS3
OBJECT_ID      = 2024-077B
CENTER_NAME    = EARTH
REF_FRAME      = TEME
TIME_SYSTEM    = UTC
MEAN_ELEMENT_THEORY = SGP/SGP4

EPOCH          = 2025-12-22T06:50:33.694944
MEAN_MOTION    = 13.85897607
ECCENTRICITY   = .0075466
INCLINATION    = 97.2622
RA_OF_ASC_NODE = 309.7583
ARG_OF_PERICENTER = 314.9156
MEAN_ANOMALY   = 44.5897

EPHEMERIS_TYPE = 0
CLASSIFICATION_TYPE = U
NORAD_CAT_ID   = 59588
ELEMENT_SET_NO = 999
REV_AT_EPOCH   = 8346
BSTAR          = .17331765E-1
MEAN_MOTION_DOT = .2037E-3
MEAN_MOTION_DDOT = 0

CCSDS_OMM_VERS = 2.0
CREATION_DATE  = 
ORIGINATOR     = 

OBJECT_NAME    = SZ-21 MODULE
OBJECT_ID      = 2025-246C
CENTER_NAME    = EARTH
REF_FRAME      = TEME
TIME_SYSTEM    = UTC
MEAN_ELEMENT_THEORY = SGP/SGP4

EPOCH          = 2025-12-22T06:04:32.826144
MEAN_MOTION    = 15.62957896
ECCENTRICITY   = .00052091
INCLINATION    = 41.4776
RA_OF_ASC_NODE = 317.9924
ARG_OF_PERICENTER = 311.1717
MEAN_ANOMALY   = 48.8673

EPHEMERIS_TYPE = 0
CLASSIFICATION_TYPE = U
NORAD_CAT_ID   = 66515
ELEMENT_SET_NO = 999
REV_AT_EPOCH   = 593
BSTAR          = .31521047E-3
MEAN_MOTION_DOT = .29176E-3
MEAN_MOTION_DDOT = 0

