CZ-2C R/B               
1 54039U 22132E   25356.25859470  .00033949  00000+0  49473-3 0  9999
2 54039  97.2939 352.6424 0021618  24.9373 335.2921 15.55364908178315
GSLV R/B                
1 54149U 22138AN  25356.08564645  .00002305  00000+0  20101-3 0  9994
2 54149  87.3823 192.3437 0024108  75.0391 285.3507 14.96174626172326
XRISM                   
1 57800U 23137A   25356.21844651  .00005280  00000+0  30765-3 0  9996
2 57800  31.0029  64.3419 0007697 340.1947  19.8392 15.10423039126066
ACS3                    
1 59588U 24077B   25356.28511221  .00020370  00000+0  17332-1 0  9996
2 59588  97.2622 309.7583 0075466 314.9156  44.5897 13.85897607 83469
SZ-21 MODULE            
1 66515U 25246C   25356.25315771  .00029176  00000+0  31521-3 0  9993
2 66515  41.4776 317.9924 0005209 311.1717  48.8673 15.62957896  5937
